[
  {
    "metar_id": 741262585,
    "icaoId": "KPRC",
    "receiptTime": "2025-04-23 04:59:02",
    "obsTime": 1745383980,
    "reportTime": "2025-04-23 05:00:00",
    "temp": 15,
    "dewp": -7.8,
    "wdir": 210,
    "wspd": 8,
    "wgst": null,
    "visib": "10+",
    "altim": 1015.7,
    "slp": 1008.9,
    "qcField": 6,
    "wxString": null,
    "presTend": null,
    "maxT": null,
    "minT": null,
    "maxT24": null,
    "minT24": null,
    "precip": null,
    "pcp3hr": null,
    "pcp6hr": null,
    "pcp24hr": null,
    "snow": null,
    "vertVis": null,
    "metarType": "METAR",
    "rawOb": "KPRC 230453Z AUTO 21008KT 10SM CLR 15/M08 A2999 RMK AO2 SLP089 T01501078",
    "mostRecent": 1,
    "lat": 34.6491,
    "lon": -112.422,
    "elev": 1528,
    "prior": 3,
    "name": "Prescott/Love Fld, AZ, US",
    "clouds": [
      {
        "cover": "CLR",
        "base": null
      }
    ]
  }
]