[{"metar_id": 742450992, "icaoId": "KP52", "receiptTime": "2025-04-24 23:46:22", "obsTime": 1745537700, "reportTime": "2025-04-24 23:35:00", "temp": 26, "dewp": -6, "wdir": 170, "wspd": 10, "wgst": 17, "visib": "10+", "altim": 1012.3, "slp": null, "qcField": 6, "wxString": null, "presTend": null, "maxT": null, "minT": null, "maxT24": null, "minT24": null, "precip": null, "pcp3hr": null, "pcp6hr": null, "pcp24hr": null, "snow": null, "vertVis": null, "metarType": "METAR", "rawOb": "KP52 242335Z AUTO 17010G17KT 10SM CLR 26/M06 A2989 RMK AO2", "mostRecent": 1, "lat": 34.7263, "lon": -112.034, "elev": 1085, "prior": 5, "name": "Cottonwood Arpt, AZ, US", "clouds": [{"cover": "CLR", "base": null}]}]