[{"metar_id": 742389355, "icaoId": "EGKK", "receiptTime": "2025-04-24 21:24:13", "obsTime": 1745529600, "reportTime": "2025-04-24 21:20:00", "temp": 9, "dewp": 7, "wdir": 70, "wspd": 8, "wgst": null, "visib": "6+", "altim": 1023, "slp": null, "qcField": 0, "wxString": null, "presTend": null, "maxT": null, "minT": null, "maxT24": null, "minT24": null, "precip": null, "pcp3hr": null, "pcp6hr": null, "pcp24hr": null, "snow": null, "vertVis": null, "metarType": "METAR", "rawOb": "EGKK 242120Z 07008KT 9999 BKN039 09/07 Q1023", "mostRecent": 1, "lat": 51.148, "lon": -0.19, "elev": 58, "prior": 5, "name": "London/Gatwick Arpt, EN, GB", "clouds": [{"cover": "BKN", "base": 3900}]}]